NORAD_CAT_ID,OBJECT_NAME,OBJECT_TYPE,EPOCH,MEAN_MOTION,ECCENTRICITY,INCLINATION,RA_OF_ASC_NODE,ARG_OF_PERICENTER,MEAN_ANOMALY,BSTAR,MEAN_MOTION_DOT,MEAN_MOTION_DDOT,TLE_LINE0,TLE_LINE1,TLE_LINE2,SEMIMAJOR_AXIS,PERIOD,APOGEE,PERIGEE,DECAYED
55774.0,STARLINK-5812,PAYLOAD,2024-05-10 08:26:49,14.98331777,0.0003015,69.9987,109.5316,270.1527,89.9287,5.933e-05,6.15e-06,0.0,0 STARLINK-5812,1 55774U 23028AK  24131.35195844  .00000615  00000-0  59330-4 0  9999,2 55774  69.9987 109.5316 0003015 270.1527  89.9287 14.98331777 66427,6950.187,96.107,574.148,569.957,0.0
55774.0,STARLINK-5812,PAYLOAD,2024-05-10 22:51:58,14.9836757,0.0002955,69.9988,108.0166,272.9076,87.1745,0.0003904,4.573e-05,0.0,0 STARLINK-5812,1 55774U 23028AK  24131.95276355  .00004573  00000-0  39040-3 0  9994,2 55774  69.9988 108.0166 0002955 272.9076  87.1745 14.98367570 66515,6950.077,96.105,573.995,569.888,0.0
55774.0,STARLINK-5812,PAYLOAD,2024-05-11 08:28:48,14.98345023,0.0002897,69.999,107.0072,275.6587,84.4241,0.00010823,1.199e-05,0.0,0 STARLINK-5812,1 55774U 23028AK  24132.35334106  .00001199  00000-0  10823-3 0  9997,2 55774  69.9990 107.0072 0002897 275.6587  84.4241 14.98345023 66571,6950.146,96.106,574.025,569.998,0.0
55774.0,STARLINK-5812,PAYLOAD,2024-05-11 22:54:00,14.98350133,0.0002868,69.9988,105.4924,275.2891,84.794,9.4766e-05,1.038e-05,0.0,0 STARLINK-5812,1 55774U 23028AK  24132.95417078  .00001038  00000-0  94766-4 0  9994,2 55774  69.9988 105.4924 0002868 275.2891  84.7940 14.98350133 66665,6950.131,96.106,573.989,570.002,0.0
55774.0,STARLINK-5812,PAYLOAD,2024-05-12 03:42:30,14.98268987,0.0003003,69.9991,104.9881,263.4501,96.6316,-0.00074556,-8.963e-05,0.0,0 STARLINK-5812,1 55774U 23028AK  24133.15452365 -.00008963  00000-0 -74556-3 0  9995,2 55774  69.9991 104.9881 0003003 263.4501  96.6316 14.98268987 66691,6950.382,96.111,574.334,570.159,0.0
55774.0,STARLINK-5812,PAYLOAD,2024-05-12 08:30:55,14.98268343,0.0003123,69.9987,104.4831,262.9558,97.1245,-0.00074156,-8.916e-05,0.0,0 STARLINK-5812,1 55774U 23028AK  24133.35480988 -.00008916  00000-0 -74156-3 0  9993,2 55774  69.9987 104.4831 0003123 262.9558  97.1245 14.98268343 66722,6950.384,96.111,574.419,570.078,0.0
55774.0,STARLINK-5812,PAYLOAD,2024-05-12 14:55:27,14.98278268,0.0003099,69.9989,103.809,263.5405,96.5401,-0.00061819,-7.451e-05,0.0,0 STARLINK-5812,1 55774U 23028AK  24133.62184888 -.00007451  00000-0 -61819-3 0  9998,2 55774  69.9989 103.8090 0003099 263.5405  96.5401 14.98278268 66762,6950.353,96.11,574.372,570.064,0.0
55774.0,STARLINK-5812,PAYLOAD,2024-05-12 22:56:08,14.98298165,0.0003345,69.9993,102.966,265.1069,94.9708,-0.00092068,-0.00011052,0.0,0 STARLINK-5812,1 55774U 23028AK  24133.95565311 -.00011052  00000-0 -92068-3 0  9990,2 55774  69.9993 102.9660 0003345 265.1069  94.9708 14.98298165 66814,6950.291,96.109,574.481,569.831,0.0
55774.0,STARLINK-5812,PAYLOAD,2024-05-13 05:20:36,14.98336272,0.0002987,69.9993,102.2937,216.1425,143.9533,-0.00015421,-1.933e-05,0.0,0 STARLINK-5812,1 55774U 23028AK  24134.22264985 -.00001933  00000-0 -15421-3 0  9999,2 55774  69.9993 102.2937 0002987 216.1425 143.9533 14.98336272 66854,6950.173,96.107,574.115,569.962,0.0
55774.0,STARLINK-5812,PAYLOAD,2024-05-13 08:32:53,14.98341882,0.0002708,69.9992,101.9574,246.1022,113.9854,-0.00023165,-2.857e-05,0.0,0 STARLINK-5812,1 55774U 23028AK  24134.35616923 -.00002857  00000-0 -23165-3 0  9996,2 55774  69.9992 101.9574 0002708 246.1022 113.9854 14.98341882 66871,6950.156,96.106,573.903,570.139,0.0
55774.0,STARLINK-5812,PAYLOAD,2024-05-13 14:57:25,14.98331282,0.0003105,69.9988,101.2842,260.2236,99.8572,7.3984e-05,7.9e-06,0.0,0 STARLINK-5812,1 55774U 23028AK  24134.62320944  .00000790  00000-0  73984-4 0  9998,2 55774  69.9988 101.2842 0003105 260.2236  99.8572 14.98331282 66910,6950.189,96.107,574.212,569.896,0.0
55774.0,STARLINK-5812,PAYLOAD,2024-05-14 08:34:53,14.98342909,0.0003006,69.9987,99.4324,265.1244,94.9572,5.1506e-05,5.22e-06,0.0,0 STARLINK-5812,1 55774U 23028AK  24135.35756277  .00000522  00000-0  51506-4 0  9990,2 55774  69.9987  99.4324 0003006 265.1244  94.9572 14.98342909 67022,6950.153,96.106,574.107,569.929,0.0
55774.0,STARLINK-5812,PAYLOAD,2024-05-14 14:59:26,14.98307028,0.0003075,69.999,98.759,263.1478,96.9331,0.00075713,8.947e-05,0.0,0 STARLINK-5812,1 55774U 23028AK  24135.62461302  .00008947  00000-0  75713-3 0  9996,2 55774  69.9990  98.7590 0003075 263.1478  96.9331 14.98307028 67068,6950.264,96.108,574.266,569.992,0.0
55774.0,STARLINK-5812,PAYLOAD,2024-05-14 23:00:06,14.98325926,0.0003273,70.0003,97.9176,262.1709,97.9079,0.00055003,6.475e-05,0.0,0 STARLINK-5812,1 55774U 23028AK  24135.95840797  .00006475  00000-0  55003-3 0  9995,2 55774  70.0003  97.9176 0003273 262.1709  97.9079 14.98325926 67116,6950.205,96.107,574.345,569.796,0.0
55774.0,STARLINK-5812,PAYLOAD,2024-05-15 03:48:29,14.98343705,0.0003217,69.9986,97.4118,260.1391,99.9405,0.00042043,4.929e-05,0.0,0 STARLINK-5812,1 55774U 23028AK  24136.15867994  .00004929  00000-0  42043-3 0  9998,2 55774  69.9986  97.4118 0003217 260.1391  99.9405 14.98343705 67140,6950.151,96.106,574.251,569.78,0.0
55774.0,STARLINK-5812,PAYLOAD,2024-05-15 07:00:45,14.98343917,0.000318,69.9991,97.076,263.1285,96.9512,0.00052553,6.185e-05,0.0,0 STARLINK-5812,1 55774U 23028AK  24136.29219569  .00006185  00000-0  52553-3 0  9995,2 55774  69.9991  97.0760 0003180 263.1285  96.9512 14.98343917 67162,6950.15,96.106,574.225,569.805,0.0
55774.0,STARLINK-5812,PAYLOAD,2024-05-15 21:25:58,14.98346487,0.0002869,69.9991,95.5609,263.2075,96.8757,-3.9484e-05,-5.64e-06,0.0,0 STARLINK-5812,1 55774U 23028AK  24136.89304128 -.00000564  00000-0 -39484-4 0  9993,2 55774  69.9991  95.5609 0002869 263.2075  96.8757 14.98346487 67253,6950.142,96.106,574.001,570.013,0.0
55774.0,STARLINK-5812,PAYLOAD,2024-05-15 23:02:07,14.98342713,0.0003081,69.9988,95.3929,263.7632,96.3176,-8.0469e-05,-1.053e-05,0.0,0 STARLINK-5812,1 55774U 23028AK  24136.95980368 -.00001053  00000-0 -80469-4 0  9999,2 55774  69.9988  95.3929 0003081 263.7632  96.3176 14.98342713 67262,6950.154,96.106,574.16,569.877,0.0
55774.0,STARLINK-5812,PAYLOAD,2024-05-16 03:50:31,14.98341742,0.0003231,69.9986,94.8878,267.3432,92.7358,-0.0001306,-1.651e-05,0.0,0 STARLINK-5812,1 55774U 23028AK  24137.16008398 -.00001651  00000-0 -13060-3 0  9993,2 55774  69.9986  94.8878 0003231 267.3432  92.7358 14.98341742 67298,6950.157,96.106,574.267,569.776,0.0
55774.0,STARLINK-5812,PAYLOAD,2024-05-16 15:03:27,14.98342439,0.0003025,69.9991,93.7085,267.8575,92.2237,-0.0001215,-1.543e-05,0.0,0 STARLINK-5812,1 55774U 23028AK  24137.62739878 -.00001543  00000-0 -12150-3 0  9997,2 55774  69.9991  93.7085 0003025 267.8575  92.2237 14.98342439 67369,6950.154,96.106,574.122,569.917,0.0
55774.0,STARLINK-5812,PAYLOAD,2024-05-17 03:52:31,14.98345795,0.0003049,69.9991,92.362,268.4246,91.6564,-0.0002057,-2.548e-05,0.0,0 STARLINK-5812,1 55774U 23028AK  24138.16147410 -.00002548  00000-0 -20570-3 0  9993,2 55774  69.9991  92.3620 0003049 268.4246  91.6564 14.98345795 67440,6950.144,96.106,574.128,569.89,0.0
55774.0,STARLINK-5812,PAYLOAD,2024-05-17 07:04:47,14.98350035,0.0002921,69.9997,92.0253,268.107,91.9755,-0.00015082,-1.893e-05,0.0,0 STARLINK-5812,1 55774U 23028AK  24138.29498856 -.00001893  00000-0 -15082-3 0  9994,2 55774  69.9997  92.0253 0002921 268.1070  91.9755 14.98350035 67465,6950.131,96.106,574.026,569.966,0.0
55774.0,STARLINK-5812,PAYLOAD,2024-05-17 19:53:52,14.98323539,0.0002174,70.0019,90.6817,286.2304,73.8616,3.0668e-05,2.73e-06,0.0,0 STARLINK-5812,1 55774U 23028AK  24138.82908038  .00000273  00000-0  30668-4 0  9998,2 55774  70.0019  90.6817 0002174 286.2304  73.8616 14.98323539 67547,6950.213,96.107,573.589,570.567,0.0
55774.0,STARLINK-5812,PAYLOAD,2024-05-17 23:06:08,14.98318273,0.0002359,70.0018,90.3419,276.469,83.62,2.9903e-06,-5.7e-07,0.0,0 STARLINK-5812,1 55774U 23028AK  24138.96260385 -.00000057  00000-0  29903-5 0  9991,2 55774  70.0018  90.3419 0002359 276.4690  83.6200 14.98318273 67564,6950.229,96.108,573.734,570.455,0.0
55774.0,STARLINK-5812,PAYLOAD,2024-05-18 13:31:20,14.98329945,0.000276,70.0004,88.8272,270.1086,89.9757,-1.9986e-05,-3.31e-06,0.0,0 STARLINK-5812,1 55774U 23028AK  24139.56343707 -.00000331  00000-0 -19986-4 0  9993,2 55774  70.0004  88.8272 0002760 270.1086  89.9757 14.98329945 67658,6950.193,96.107,573.976,570.14,0.0
55774.0,STARLINK-5812,PAYLOAD,2024-05-18 21:32:01,14.98332836,0.0002487,70.0009,87.9844,272.8352,87.2522,-7.4674e-06,-1.82e-06,0.0,0 STARLINK-5812,1 55774U 23028AK  24139.89723556 -.00000182  00000-0 -74674-5 0  9993,2 55774  70.0009  87.9844 0002487 272.8352  87.2522 14.98332836 67709,6950.184,96.107,573.778,570.321,0.0
55774.0,STARLINK-5812,PAYLOAD,2024-05-19 03:56:33,14.98338205,0.0002675,70.0003,87.3135,265.7694,94.3159,-8.3461e-06,-1.93e-06,0.0,0 STARLINK-5812,1 55774U 23028AK  24140.16427099 -.00000193  00000-0 -83461-5 0  9994,2 55774  70.0003  87.3135 0002675 265.7694  94.3159 14.98338205 67744,6950.168,96.106,573.892,570.173,0.0
55774.0,STARLINK-5812,PAYLOAD,2024-05-19 05:32:40,14.98339019,0.0002631,70.0004,87.1452,266.1856,93.9002,5.4502e-06,-2.8e-07,0.0,0 STARLINK-5812,1 55774U 23028AK  24140.23102988 -.00000028  00000-0  54502-5 0  9999,2 55774  70.0004  87.1452 0002631 266.1856  93.9002 14.98339019 67759,6950.165,96.106,573.859,570.201,0.0
55774.0,STARLINK-5812,PAYLOAD,2024-05-19 19:57:54,14.98318431,0.0002562,70.0009,85.6305,265.9728,94.1138,2.7152e-05,2.31e-06,0.0,0 STARLINK-5812,1 55774U 23028AK  24140.83188319  .00000231  00000-0  27152-4 0  9992,2 55774  70.0009  85.6305 0002562 265.9728  94.1138 14.98318431 67840,6950.229,96.108,573.874,570.313,0.0
55774.0,STARLINK-5812,PAYLOAD,2024-05-20 07:10:51,14.98317152,0.0002362,70.0008,84.4514,256.3775,103.7121,-8.7333e-06,-1.97e-06,0.0,0 STARLINK-5812,1 55774U 23028AK  24141.29920797 -.00000197  00000-0 -87333-5 0  9998,2 55774  70.0008  84.4514 0002362 256.3775 103.7121 14.98317152 67918,6950.233,96.108,573.739,570.456,0.0
